{"fetched_at":"2026-03-29T02:12:04Z","count":15717,"tles":[{"name":"BEIDOU-2 M6 (C14)","line1":"1 38775U 12050B   26082.99164297 -.00000001  00000+0  00000+0 0  9993","line2":"2 38775  56.4716  65.7096 0014341 343.8806  16.0670  1.86230776 91728","category":"GPS"}]}